2025-274J               
1 66658U 25274J   25344.66423679  .00004673  00000+0  45894-3 0  9994
2 66658  97.7383 271.9095 0011473 286.8459  73.1502 14.92603554  2099
JACK K                  
1 66659U 25274K   25344.32734500  .00004352  00000+0  42579-3 0  9997
2 66659  97.7384 271.5826 0012206 289.5073  70.4827 14.92785796  2040
K-HERO                  
1 66660U 25274L   25344.86216288  .00004629  00000+0  45073-3 0  9995
2 66660  97.7384 272.1123 0012778 287.9189  72.0637 14.92942266  2126
SNUGLITE-III            
1 66661U 25274M   25344.52565073  .00003587  00000+0  34929-3 0  9998
2 66661  97.7386 271.7842 0013507 290.3559  69.6209 14.93078808  2076
2025-274N               
1 66662U 25274N   25345.06121747  .00004082  00000+0  39607-3 0  9994
2 66662  97.7384 272.3123 0013921 287.9868  71.9834 14.93133200  2156
KSLV-II R/B             
1 66663U 25274P   25344.68665326  .00004986  00000+0  42413-3 0  9990
2 66663  97.7409 272.0473 0051500 326.4324  33.3638 14.97260202  2107
SOYUZ-MS 28             
1 66664U 25275A   25344.92875130  .00014434  00000+0  26509-3 0  9992
2 66664  51.6309 151.4463 0003351 232.8214 127.2469 15.49489378  2160
STARLINK-35867          
1 66791U 25278A   25345.16668980 -.01056019  00000+0 -36818-2 0  9997
2 66791  42.9983 261.8787 0002047 274.0197 101.0605 15.90698286  2704
STARLINK-35990          
1 66792U 25278B   25345.16668980 -.01059300  00000+0 -36875-2 0  9997
2 66792  42.9981 261.8749 0001996 273.8504 102.7156 15.90736014  2703
STARLINK-36051          
1 66793U 25278C   25345.16668980 -.01071074  00000+0 -37175-2 0  9994
2 66793  42.9984 261.8626 0001937 272.9006 108.5703 15.90820091  2603
STARLINK-36062          
1 66794U 25278D   25345.16668980 -.01063842  00000+0 -36972-2 0  9993
2 66794  42.9983 261.8679 0001977 273.4321 105.9493 15.90778151  2708
STARLINK-36047          
1 66795U 25278E   25345.16668980 -.01074142  00000+0 -37212-2 0  9997
2 66795  42.9983 261.8559 0001880 269.4876 114.5769 15.90863632  2609
