CCSDS_OMM_VERS = 2.0
CREATION_DATE  = 
ORIGINATOR     = 

OBJECT_NAME    = 2025-274J
OBJECT_ID      = 2025-274J
CENTER_NAME    = EARTH
REF_FRAME      = TEME
TIME_SYSTEM    = UTC
MEAN_ELEMENT_THEORY = SGP/SGP4

EPOCH          = 2025-12-10T15:56:30.058656
MEAN_MOTION    = 14.92603554
ECCENTRICITY   = .00114737
INCLINATION    = 97.7383
RA_OF_ASC_NODE = 271.9095
ARG_OF_PERICENTER = 286.8459
MEAN_ANOMALY   = 73.1502

EPHEMERIS_TYPE = 0
CLASSIFICATION_TYPE = U
NORAD_CAT_ID   = 66658
ELEMENT_SET_NO = 999
REV_AT_EPOCH   = 209
BSTAR          = .45894331E-3
MEAN_MOTION_DOT = .4673E-4
MEAN_MOTION_DDOT = 0

CCSDS_OMM_VERS = 2.0
CREATION_DATE  = 
ORIGINATOR     = 

OBJECT_NAME    = JACK K
OBJECT_ID      = 2025-274K
CENTER_NAME    = EARTH
REF_FRAME      = TEME
TIME_SYSTEM    = UTC
MEAN_ELEMENT_THEORY = SGP/SGP4

EPOCH          = 2025-12-10T07:51:22.608000
MEAN_MOTION    = 14.92785796
ECCENTRICITY   = .00122069
INCLINATION    = 97.7384
RA_OF_ASC_NODE = 271.5826
ARG_OF_PERICENTER = 289.5073
MEAN_ANOMALY   = 70.4827

EPHEMERIS_TYPE = 0
CLASSIFICATION_TYPE = U
NORAD_CAT_ID   = 66659
ELEMENT_SET_NO = 999
REV_AT_EPOCH   = 204
BSTAR          = .42579045E-3
MEAN_MOTION_DOT = .4352E-4
MEAN_MOTION_DDOT = 0

CCSDS_OMM_VERS = 2.0
CREATION_DATE  = 
ORIGINATOR     = 

OBJECT_NAME    = K-HERO
OBJECT_ID      = 2025-274L
CENTER_NAME    = EARTH
REF_FRAME      = TEME
TIME_SYSTEM    = UTC
MEAN_ELEMENT_THEORY = SGP/SGP4

EPOCH          = 2025-12-10T20:41:30.872832
MEAN_MOTION    = 14.92942266
ECCENTRICITY   = .0012778
INCLINATION    = 97.7384
RA_OF_ASC_NODE = 272.1123
ARG_OF_PERICENTER = 287.9189
MEAN_ANOMALY   = 72.0637

EPHEMERIS_TYPE = 0
CLASSIFICATION_TYPE = U
NORAD_CAT_ID   = 66660
ELEMENT_SET_NO = 999
REV_AT_EPOCH   = 212
BSTAR          = .45073E-3
MEAN_MOTION_DOT = .4629E-4
MEAN_MOTION_DDOT = 0

CCSDS_OMM_VERS = 2.0
CREATION_DATE  = 
ORIGINATOR     = 

OBJECT_NAME    = SNUGLITE-III
OBJECT_ID      = 2025-274M
CENTER_NAME    = EARTH
REF_FRAME      = TEME
TIME_SYSTEM    = UTC
MEAN_ELEMENT_THEORY = SGP/SGP4

EPOCH          = 2025-12-10T12:36:56.223072
MEAN_MOTION    = 14.93078808
ECCENTRICITY   = .0013507
INCLINATION    = 97.7386
RA_OF_ASC_NODE = 271.7842
ARG_OF_PERICENTER = 290.3559
MEAN_ANOMALY   = 69.6209

EPHEMERIS_TYPE = 0
CLASSIFICATION_TYPE = U
NORAD_CAT_ID   = 66661
ELEMENT_SET_NO = 999
REV_AT_EPOCH   = 207
BSTAR          = .34929E-3
MEAN_MOTION_DOT = .3587E-4
MEAN_MOTION_DDOT = 0

CCSDS_OMM_VERS = 2.0
CREATION_DATE  = 
ORIGINATOR     = 

OBJECT_NAME    = 2025-274N
OBJECT_ID      = 2025-274N
CENTER_NAME    = EARTH
REF_FRAME      = TEME
TIME_SYSTEM    = UTC
MEAN_ELEMENT_THEORY = SGP/SGP4

EPOCH          = 2025-12-11T01:28:09.189408
MEAN_MOTION    = 14.93133200
ECCENTRICITY   = .0013921
INCLINATION    = 97.7384
RA_OF_ASC_NODE = 272.3123
ARG_OF_PERICENTER = 287.9868
MEAN_ANOMALY   = 71.9834

EPHEMERIS_TYPE = 0
CLASSIFICATION_TYPE = U
NORAD_CAT_ID   = 66662
ELEMENT_SET_NO = 999
REV_AT_EPOCH   = 215
BSTAR          = .39607E-3
MEAN_MOTION_DOT = .4082E-4
MEAN_MOTION_DDOT = 0

CCSDS_OMM_VERS = 2.0
CREATION_DATE  = 
ORIGINATOR     = 

OBJECT_NAME    = KSLV-II R/B
OBJECT_ID      = 2025-274P
CENTER_NAME    = EARTH
REF_FRAME      = TEME
TIME_SYSTEM    = UTC
MEAN_ELEMENT_THEORY = SGP/SGP4

EPOCH          = 2025-12-10T16:28:46.841664
MEAN_MOTION    = 14.97260202
ECCENTRICITY   = .00515006
INCLINATION    = 97.7409
RA_OF_ASC_NODE = 272.0473
ARG_OF_PERICENTER = 326.4324
MEAN_ANOMALY   = 33.3638

EPHEMERIS_TYPE = 0
CLASSIFICATION_TYPE = U
NORAD_CAT_ID   = 66663
ELEMENT_SET_NO = 999
REV_AT_EPOCH   = 210
BSTAR          = .42412813E-3
MEAN_MOTION_DOT = .4986E-4
MEAN_MOTION_DDOT = 0

CCSDS_OMM_VERS = 2.0
CREATION_DATE  = 
ORIGINATOR     = 

OBJECT_NAME    = SOYUZ-MS 28
OBJECT_ID      = 2025-275A
CENTER_NAME    = EARTH
REF_FRAME      = TEME
TIME_SYSTEM    = UTC
MEAN_ELEMENT_THEORY = SGP/SGP4

EPOCH          = 2025-12-10T22:17:24.112320
MEAN_MOTION    = 15.49489378
ECCENTRICITY   = .0003351
INCLINATION    = 51.6309
RA_OF_ASC_NODE = 151.4463
ARG_OF_PERICENTER = 232.8214
MEAN_ANOMALY   = 127.2469

EPHEMERIS_TYPE = 0
CLASSIFICATION_TYPE = U
NORAD_CAT_ID   = 66664
ELEMENT_SET_NO = 999
REV_AT_EPOCH   = 216
BSTAR          = .26509E-3
MEAN_MOTION_DOT = .14434E-3
MEAN_MOTION_DDOT = 0

CCSDS_OMM_VERS = 2.0
CREATION_DATE  = 
ORIGINATOR     = 

OBJECT_NAME    = STARLINK-35867
OBJECT_ID      = 2025-278A
CENTER_NAME    = EARTH
REF_FRAME      = TEME
TIME_SYSTEM    = UTC
MEAN_ELEMENT_THEORY = SGP/SGP4

EPOCH          = 2025-12-11T04:00:01.998720
MEAN_MOTION    = 15.90698286
ECCENTRICITY   = .0002047
INCLINATION    = 42.9983
RA_OF_ASC_NODE = 261.8787
ARG_OF_PERICENTER = 274.0197
MEAN_ANOMALY   = 101.0605

EPHEMERIS_TYPE = 0
CLASSIFICATION_TYPE = U
NORAD_CAT_ID   = 66791
ELEMENT_SET_NO = 999
REV_AT_EPOCH   = 270
BSTAR          = -.36818E-2
MEAN_MOTION_DOT = -.1056019E-1
MEAN_MOTION_DDOT = 0

CCSDS_OMM_VERS = 2.0
CREATION_DATE  = 
ORIGINATOR     = 

OBJECT_NAME    = STARLINK-35990
OBJECT_ID      = 2025-278B
CENTER_NAME    = EARTH
REF_FRAME      = TEME
TIME_SYSTEM    = UTC
MEAN_ELEMENT_THEORY = SGP/SGP4

EPOCH          = 2025-12-11T04:00:01.998720
MEAN_MOTION    = 15.90736014
ECCENTRICITY   = .0001996
INCLINATION    = 42.9981
RA_OF_ASC_NODE = 261.8749
ARG_OF_PERICENTER = 273.8504
MEAN_ANOMALY   = 102.7156

EPHEMERIS_TYPE = 0
CLASSIFICATION_TYPE = U
NORAD_CAT_ID   = 66792
ELEMENT_SET_NO = 999
REV_AT_EPOCH   = 270
BSTAR          = -.36875E-2
MEAN_MOTION_DOT = -.10593E-1
MEAN_MOTION_DDOT = 0

CCSDS_OMM_VERS = 2.0
CREATION_DATE  = 
ORIGINATOR     = 

OBJECT_NAME    = STARLINK-36051
OBJECT_ID      = 2025-278C
CENTER_NAME    = EARTH
REF_FRAME      = TEME
TIME_SYSTEM    = UTC
MEAN_ELEMENT_THEORY = SGP/SGP4

EPOCH          = 2025-12-11T04:00:01.998720
MEAN_MOTION    = 15.90820091
ECCENTRICITY   = .0001937
INCLINATION    = 42.9984
RA_OF_ASC_NODE = 261.8626
ARG_OF_PERICENTER = 272.9006
MEAN_ANOMALY   = 108.5703

EPHEMERIS_TYPE = 0
CLASSIFICATION_TYPE = U
NORAD_CAT_ID   = 66793
ELEMENT_SET_NO = 999
REV_AT_EPOCH   = 260
BSTAR          = -.37175E-2
MEAN_MOTION_DOT = -.1071074E-1
MEAN_MOTION_DDOT = 0

CCSDS_OMM_VERS = 2.0
CREATION_DATE  = 
ORIGINATOR     = 

OBJECT_NAME    = STARLINK-36062
OBJECT_ID      = 2025-278D
CENTER_NAME    = EARTH
REF_FRAME      = TEME
TIME_SYSTEM    = UTC
MEAN_ELEMENT_THEORY = SGP/SGP4

EPOCH          = 2025-12-11T04:00:01.998720
MEAN_MOTION    = 15.90778151
ECCENTRICITY   = .0001977
INCLINATION    = 42.9983
RA_OF_ASC_NODE = 261.8679
ARG_OF_PERICENTER = 273.4321
MEAN_ANOMALY   = 105.9493

EPHEMERIS_TYPE = 0
CLASSIFICATION_TYPE = U
NORAD_CAT_ID   = 66794
ELEMENT_SET_NO = 999
REV_AT_EPOCH   = 270
BSTAR          = -.36972E-2
MEAN_MOTION_DOT = -.1063842E-1
MEAN_MOTION_DDOT = 0

CCSDS_OMM_VERS = 2.0
CREATION_DATE  = 
ORIGINATOR     = 

OBJECT_NAME    = STARLINK-36047
OBJECT_ID      = 2025-278E
CENTER_NAME    = EARTH
REF_FRAME      = TEME
TIME_SYSTEM    = UTC
MEAN_ELEMENT_THEORY = SGP/SGP4

EPOCH          = 2025-12-11T04:00:01.998720
MEAN_MOTION    = 15.90863632
ECCENTRICITY   = .000188
INCLINATION    = 42.9983
RA_OF_ASC_NODE = 261.8559
ARG_OF_PERICENTER = 269.4876
MEAN_ANOMALY   = 114.5769

EPHEMERIS_TYPE = 0
CLASSIFICATION_TYPE = U
NORAD_CAT_ID   = 66795
ELEMENT_SET_NO = 999
REV_AT_EPOCH   = 260
BSTAR          = -.37212E-2
MEAN_MOTION_DOT = -.1074142E-1
MEAN_MOTION_DDOT = 0

